NORAD_CAT_ID,OBJECT_NAME,OBJECT_TYPE,EPOCH,MEAN_MOTION,ECCENTRICITY,INCLINATION,RA_OF_ASC_NODE,ARG_OF_PERICENTER,MEAN_ANOMALY,BSTAR,MEAN_MOTION_DOT,MEAN_MOTION_DDOT,TLE_LINE0,TLE_LINE1,TLE_LINE2,SEMIMAJOR_AXIS,PERIOD,APOGEE,PERIGEE,DECAYED
54104.0,STARLINK-5203,PAYLOAD,2024-02-04 12:34:47,15.0883478,0.0001385,53.218,129.471,76.6003,283.5143,0.00018126,2.598e-05,0.0,0 STARLINK-5203,1 54104U 22136BF  24035.52415803  .00002598  00000-0  18126-3 0  9995,2 54104  53.2180 129.4710 0001385  76.6003 283.5143 15.08834780 72580,6917.896,95.438,540.719,538.803,0.0
54104.0,STARLINK-5203,PAYLOAD,2024-02-05 12:25:34,15.08846453,0.0001317,53.218,125.0087,89.957,270.1574,0.0001113,1.484e-05,0.0,0 STARLINK-5203,1 54104U 22136BF  24036.51775573  .00001484  00000-0  11130-3 0  9999,2 54104  53.2180 125.0087 0001317  89.9570 270.1574 15.08846453 72265,6917.861,95.437,540.637,538.815,0.0
54104.0,STARLINK-5203,PAYLOAD,2024-02-06 10:40:58,15.08843511,0.0001398,53.2178,120.8455,96.0424,264.0727,2.9595e-05,1.83e-06,0.0,0 STARLINK-5203,1 54104U 22136BF  24037.44512003  .00000183  00000-0  29595-4 0  9999,2 54104  53.2178 120.8455 0001398  96.0424 264.0727 15.08843511 72871,6917.87,95.437,540.702,538.768,0.0
54104.0,STARLINK-5203,PAYLOAD,2024-02-06 12:16:21,15.08845675,0.0001525,53.218,120.5472,98.9807,261.1358,3.447e-05,2.61e-06,0.0,0 STARLINK-5203,1 54104U 22136BF  24037.51135883  .00000261  00000-0  34470-4 0  9999,2 54104  53.2180 120.5472 0001525  98.9807 261.1358 15.08845675 72419,6917.863,95.437,540.783,538.673,0.0
54104.0,STARLINK-5203,PAYLOAD,2024-02-07 12:07:08,15.08846722,0.0001445,53.2175,116.0911,95.6767,264.439,3.623e-05,2.89e-06,0.0,0 STARLINK-5203,1 54104U 22136BF  24038.50495852  .00000289  00000-0  36230-4 0  9990,2 54104  53.2175 116.0911 0001445  95.6767 264.4390 15.08846722 73036,6917.86,95.437,540.724,538.725,0.0
54104.0,STARLINK-5203,PAYLOAD,2024-02-07 21:39:27,15.08839807,0.0001329,53.2173,114.3032,89.47,270.6445,7.8938e-05,9.69e-06,0.0,0 STARLINK-5203,1 54104U 22136BF  24038.90240142  .00000969  00000-0  78938-4 0  9990,2 54104  53.2173 114.3032 0001329  89.4700 270.6445 15.08839807 72628,6917.881,95.438,540.665,538.827,0.0
54104.0,STARLINK-5203,PAYLOAD,2024-02-08 10:22:32,15.08838124,0.0001558,53.2181,111.9281,99.2164,260.9004,4.7771e-05,4.72e-06,0.0,0 STARLINK-5203,1 54104U 22136BF  24039.43232582  .00000472  00000-0  47771-4 0  9998,2 54104  53.2181 111.9281 0001558  99.2164 260.9004 15.08838124 72706,6917.886,95.438,540.829,538.673,0.0
54104.0,STARLINK-5203,PAYLOAD,2024-02-09 03:51:47,15.08844303,0.0001505,53.218,108.6552,102.6152,257.5009,1.3107e-05,-7.9e-07,0.0,0 STARLINK-5203,1 54104U 22136BF  24040.16096498 -.00000079  00000-0  13107-4 0  9994,2 54104  53.2180 108.6552 0001505 102.6152 257.5009 15.08844303 73284,6917.867,95.437,540.773,538.691,0.0
54104.0,STARLINK-5203,PAYLOAD,2024-02-09 13:24:06,15.08846582,0.0001511,53.2182,106.8692,96.1146,264.0019,4.749e-05,4.68e-06,0.0,0 STARLINK-5203,1 54104U 22136BF  24040.55840289  .00000468  00000-0  47490-4 0  9995,2 54104  53.2182 106.8692 0001511  96.1146 264.0019 15.08846582 72877,6917.86,95.437,540.771,538.68,0.0
54104.0,STARLINK-5203,PAYLOAD,2024-02-10 03:42:34,15.08836842,0.000164,53.2183,104.1976,101.7079,258.4097,6.6095e-05,7.64e-06,0.0,0 STARLINK-5203,1 54104U 22136BF  24041.15456930  .00000764  00000-0  66095-4 0  9999,2 54104  53.2183 104.1976 0001640 101.7079 258.4097 15.08836842 73439,6917.89,95.438,540.89,538.621,0.0
54104.0,STARLINK-5203,PAYLOAD,2024-02-10 11:39:30,15.08840751,0.0001554,53.2175,102.7069,87.0087,273.1083,8.4863e-05,1.063e-05,0.0,0 STARLINK-5203,1 54104U 22136BF  24041.48576833  .00001063  00000-0  84863-4 0  9996,2 54104  53.2175 102.7069 0001554  87.0087 273.1083 15.08840751 73013,6917.878,95.438,540.818,538.668,0.0
54104.0,STARLINK-5203,PAYLOAD,2024-02-11 09:54:54,15.08838469,0.0001852,53.2177,98.5453,72.1438,287.9756,0.00010241,1.342e-05,0.0,0 STARLINK-5203,1 54104U 22136BF  24042.41313205  .00001342  00000-0  10241-3 0  9990,2 54104  53.2177  98.5453 0001852  72.1438 287.9756 15.08838469 73620,6917.885,95.438,541.031,538.469,0.0
54104.0,STARLINK-5203,PAYLOAD,2024-02-12 03:24:08,15.08845292,0.0001795,53.2178,95.2741,72.8142,287.3046,0.00015247,2.14e-05,0.0,0 STARLINK-5203,1 54104U 22136BF  24043.14176498  .00002140  00000-0  15247-3 0  9990,2 54104  53.2178  95.2741 0001795  72.8142 287.3046 15.08845292 73730,6917.864,95.437,540.971,538.487,0.0
54104.0,STARLINK-5203,PAYLOAD,2024-02-12 09:45:40,15.08839584,0.0001715,53.2174,94.0844,77.17,282.9483,0.00037734,5.722e-05,0.0,0 STARLINK-5203,1 54104U 22136BF  24043.40672448  .00005722  00000-0  37734-3 0  9999,2 54104  53.2174  94.0844 0001715  77.1700 282.9483 15.08839584 73303,6917.882,95.438,540.933,538.56,0.0
54104.0,STARLINK-5203,PAYLOAD,2024-02-13 03:14:56,15.08836689,0.0001641,53.2176,90.8118,99.1615,260.9563,1.8523e-06,-2.59e-06,0.0,0 STARLINK-5203,1 54104U 22136BF  24044.13537354 -.00000259  00000-0  18523-5 0  9994,2 54104  53.2176  90.8118 0001641  99.1615 260.9563 15.08836689 73881,6917.891,95.438,540.891,538.62,0.0
54104.0,STARLINK-5203,PAYLOAD,2024-02-13 09:36:28,15.08836349,0.0001486,53.2165,89.6216,99.019,261.0971,-1.6533e-05,-5.51e-06,0.0,0 STARLINK-5203,1 54104U 22136BF  24044.40033229 -.00000551  00000-0 -16533-4 0  9990,2 54104  53.2165  89.6216 0001486  99.0190 261.0971 15.08836349 73459,6917.892,95.438,540.785,538.729,0.0
54104.0,STARLINK-5203,PAYLOAD,2024-02-14 09:27:15,15.08850107,0.0001479,53.2172,85.1648,91.7103,268.4059,0.00021603,3.153e-05,0.0,0 STARLINK-5203,1 54104U 22136BF  24045.39392726  .00003153  00000-0  21603-3 0  9991,2 54104  53.2172  85.1648 0001479  91.7103 268.4059 15.08850107 74077,6917.849,95.437,540.738,538.691,0.0
54104.0,STARLINK-5203,PAYLOAD,2024-02-14 12:38:01,15.08858439,0.0001489,53.2162,84.5675,93.8761,266.2401,0.00023392,3.439e-05,0.0,0 STARLINK-5203,1 54104U 22136BF  24045.52640242  .00003439  00000-0  23392-3 0  9999,2 54104  53.2162  84.5675 0001489  93.8761 266.2401 15.08858439 73626,6917.824,95.436,540.719,538.659,0.0
54104.0,STARLINK-5203,PAYLOAD,2024-02-14 18:59:34,15.08842873,0.0001545,53.2156,83.3718,69.4559,290.6599,0.00017919,2.565e-05,0.0,0 STARLINK-5203,1 54104U 22136BF  24045.79137078  .00002565  00000-0  17919-3 0  9993,2 54104  53.2156  83.3718 0001545  69.4559 290.6599 15.08842873 74132,6917.872,95.437,540.805,538.668,0.0
54104.0,STARLINK-5203,PAYLOAD,2024-02-15 02:56:30,15.08832686,0.0001489,53.2166,81.8904,94.2096,265.9067,5.5174e-05,5.9e-06,0.0,0 STARLINK-5203,1 54104U 22136BF  24046.12257745  .00000590  00000-0  55174-4 0  9997,2 54104  53.2166  81.8904 0001489  94.2096 265.9067 15.08832686 74183,6917.903,95.438,540.798,538.738,0.0
54104.0,STARLINK-5203,PAYLOAD,2024-02-15 09:18:03,15.08841748,0.0001518,53.2168,80.7028,98.5731,261.5433,0.00022026,3.219e-05,0.0,0 STARLINK-5203,1 54104U 22136BF  24046.38753485  .00003219  00000-0  22026-3 0  9997,2 54104  53.2168  80.7028 0001518  98.5731 261.5433 15.08841748 73756,6917.875,95.437,540.79,538.69,0.0
54104.0,STARLINK-5203,PAYLOAD,2024-02-15 18:50:21,15.08842184,0.0001542,53.2168,78.9182,96.2631,263.8537,0.00060788,9.4e-05,0.0,0 STARLINK-5203,1 54104U 22136BF  24046.78497670  .00009400  00000-0  60788-3 0  9997,2 54104  53.2168  78.9182 0001542  96.2631 263.8537 15.08842184 73819,6917.874,95.437,540.805,538.672,0.0
54104.0,STARLINK-5203,PAYLOAD,2024-02-16 09:08:50,15.08850925,0.0001629,53.2175,76.2418,101.8407,258.2768,0.00060621,9.376e-05,0.0,0 STARLINK-5203,1 54104U 22136BF  24047.38113502  .00009376  00000-0  60621-3 0  9991,2 54104  53.2175  76.2418 0001629 101.8407 258.2768 15.08850925 74378,6917.847,95.437,540.839,538.585,0.0
54104.0,STARLINK-5203,PAYLOAD,2024-02-17 10:34:59,15.08851039,0.0001796,53.2165,71.4862,120.1693,239.9477,0.00029371,4.391e-05,0.0,0 STARLINK-5203,1 54104U 22136BF  24048.44097163  .00004391  00000-0  29371-3 0  9992,2 54104  53.2165  71.4862 0001796 120.1693 239.9477 15.08851039 74531,6917.847,95.437,540.954,538.469,0.0
54104.0,STARLINK-5203,PAYLOAD,2024-02-17 18:31:48,15.09003161,0.0001488,53.2168,69.9984,111.5435,248.5716,0.0028093,0.00044908,0.0,0 STARLINK-5203,1 54104U 22136BF  24048.77209233  .00044908  00000-0  28093-2 0  9998,2 54104  53.2168  69.9984 0001488 111.5435 248.5716 15.09003161 74580,6917.382,95.427,540.276,538.217,0.0
54104.0,STARLINK-5203,PAYLOAD,2024-02-18 04:03:52,15.09292672,0.0001959,53.216,68.2121,106.6783,253.4424,0.0071145,0.00116247,0.0,0 STARLINK-5203,1 54104U 22136BF  24049.16935640  .00116247  00000-0  71145-2 0  9992,2 54104  53.2160  68.2121 0001959 106.6783 253.4424 15.09292672 74646,6916.497,95.409,539.717,537.007,0.0
54104.0,STARLINK-5203,PAYLOAD,2024-02-18 10:25:11,15.09478308,0.0001426,53.2177,67.0225,102.5192,257.596,0.0090249,0.0014898,0.0,0 STARLINK-5203,1 54104U 22136BF  24049.43415785  .00148980  00000-0  90249-2 0  9990,2 54104  53.2177  67.0225 0001426 102.5192 257.5960 15.09478308 74680,6915.93,95.397,538.781,536.809,0.0
54104.0,STARLINK-5203,PAYLOAD,2024-02-18 13:35:49,15.09592058,0.0001691,53.2166,66.4268,95.6894,264.4292,0.010199,0.00169416,0.0,0 STARLINK-5203,1 54104U 22136BF  24049.56654075  .00169416  00000-0  10199-1 0  9993,2 54104  53.2166  66.4268 0001691  95.6894 264.4292 15.09592058 74238,6915.583,95.39,538.617,536.278,0.0
54104.0,STARLINK-5203,PAYLOAD,2024-02-18 18:21:45,15.09726685,0.0001352,53.2165,65.5335,95.8213,264.2934,0.011003,0.00183846,0.0,0 STARLINK-5203,1 54104U 22136BF  24049.76511039  .00183846  00000-0  11003-1 0  9995,2 54104  53.2165  65.5335 0001352  95.8213 264.2934 15.09726685 74734,6915.171,95.382,537.971,536.102,0.0
54104.0,STARLINK-5203,PAYLOAD,2024-02-19 06:00:00,15.10490639,0.0001615,53.216,63.3501,84.8563,33.1731,-0.0027833,-0.00046348,0.0,0 STARLINK-5203,1 54104U 22136BF  24050.25001157 -.00046348  00000-0 -27833-2 0  9992,2 54104  53.2160  63.3501 0001615  84.8563  33.1731 15.10490639 74803,6912.84,95.333,535.821,533.588,0.0
